COSMOS 2433 (720)       
1 32275U 07052A   22035.60224781 -.00000068  00000+0  00000+0 0  9998
2 32275  66.0833   9.0775 0004886 268.4187 313.3076  2.13104158111132
COSMOS 2432 (719)       
1 32276U 07052B   22036.55319042 -.00000067  00000+0  00000+0 0  9998
2 32276  66.0965   9.1447 0011985 319.8772 220.0284  2.13103474111152
COSMOS 2434 (721)       
1 32393U 07065A   22036.87063450  .00000046  00000+0  00000+0 0  9992
2 32393  64.4080 245.9211 0004834  72.5084 291.3635  2.13103096109872
COSMOS 2436 (723)       
1 32395U 07065C   22034.79648297  .00000042  00000+0  00000+0 0  9997
2 32395  64.4166 246.0481 0016570   6.2106 342.3910  2.13102958109755
COSMOS 2456 (730)       
1 36111U 09070A   22036.83989730 -.00000008  00000+0  00000+0 0  9995
2 36111  64.3214 125.5743 0003091 306.7214 200.9848  2.13099095 94537
COSMOS 2457 (733)       
1 36112U 09070B   22035.54169831  .00000002  00000+0  00000+0 0  9998
2 36112  64.3040 125.4973 0005691 165.6296 192.3955  2.13101344 94500
COSMOS 2461 (735)       
1 36401U 10007B   22036.55041411 -.00000068  00000+0  00000+0 0  9999
2 36401  65.9708   7.9026 0020788 359.5077  87.1696  2.13103728 92887
COSMOS 2460 (732)       
1 36402U 10007C   22036.22988142 -.00000068  00000+0  00000+0 0  9995
2 36402  65.9576   7.8656 0002461 293.8849 214.0564  2.13106438 92879
COSMOS 2464 (736)       
1 37139U 10041C   22036.33409177  .00000043  00000+0  00000+0 0  9991
2 37139  64.0068 245.0809 0030266  13.4359 158.0323  2.13100843 88931
COSMOS 2476 (744)       
1 37867U 11064A   22036.42860093 -.00000003  00000+0  00000+0 0  9990
2 37867  64.6121 126.8927 0021359 234.6021 221.9331  2.13101846 79874
COSMOS 2477 (745)       
1 37868U 11064B   22036.53147851 -.00000003  00000+0  00000+0 0  9993
2 37868  64.6203 126.9524 0018583 235.2019 118.4541  2.13101615 79821
COSMOS 2475 (743)       
1 37869U 11064C   22036.53728912 -.00000004  00000+0  00000+0 0  9998
2 37869  64.6269 126.9598 0022783 254.8450  61.1642  2.13101602 79831
COSMOS 2485 (747)       
1 39155U 13019A   22036.33681889 -.00000001  00000+0  00000+0 0  9996
2 39155  64.7771 127.2953 0021888 230.5513 199.9981  2.13101778 68349
COSMOS 2492 (754)       
1 39620U 14012A   22035.59916904 -.00000069  00000+0  00000+0 0  9997
2 39620  65.8460   7.5882 0015180 318.5843 300.6571  2.13103202 61270
COSMOS 2500 (755)       
1 40001U 14032A   22036.59103675 -.00000068  00000+0  00000+0 0  9997
2 40001  65.7847   7.4248 0006871 225.3910 293.7841  2.13102436 59519
COSMOS 2501 (702K)      
1 40315U 14075A   22036.37247677  .00000041  00000+0  00000+0 0  9999
2 40315  63.7164 245.7988 0016130 206.4213 312.4436  2.13101368 55912
COSMOS 2514 (751)       
1 41330U 16008A   22036.37766351 -.00000069  00000+0  00000+0 0  9991
2 41330  65.5849   7.1562 0010720 226.6744 312.3961  2.13102780 46674
COSMOS 2516 (753)       
1 41554U 16032A   22036.52028450  .00000042  00000+0  00000+0 0  9994
2 41554  63.9412 246.0324 0011936 214.2049 334.4316  2.13106082 44284
COSMOS 2522 (752)       
1 42939U 17055A   22036.45554940  .00000042  00000+0  00000+0 0  9998
2 42939  64.1763 246.3905 0005010 248.1724 109.7190  2.13101987 34038
COSMOS 2527 (756)       
1 43508U 18053A   22036.42152662 -.00000002  00000+0  00000+0 0  9999
2 43508  64.9399 127.2647 0008107 225.0417 138.8581  2.13102542 28338
COSMOS 2529 (757)       
1 43687U 18086A   22036.24970855  .00000041  00000+0  00000+0 0  9997
2 43687  64.3908 246.6789 0007667 278.2054 237.2874  2.13102081 25341
COSMOS 2534 (758)       
1 44299U 19030A   22035.20254859  .00000040  00000+0  00000+0 0  9990
2 44299  64.4615 246.5865 0011103 298.0502 268.7545  2.13101974 20966
COSMOS 2544 (759)       
1 44850U 19088A   22035.79569791  .00000002  00000+0  00000+0 0  9992
2 44850  64.9249 127.1413 0011975 256.7896  30.5606  2.13102341 16747
COSMOS 2545 (760)       
1 45358U 20018A   22035.93622145 -.00000071  00000+0  00000+0 0  9997
2 45358  64.9219   7.8888 0010868 257.7368 347.0955  2.13102695 14702
COSMOS 2547 (705K)      
1 46805U 20075A   22036.52594422  .00000044  00000+0  00000+0 0  9999
2 46805  64.6845 245.9270 0005256 250.1273 299.1741  2.13102927  9969
